[{"OBJECT_NAME":"SMDC ONE 1.2","OBJECT_ID":"2012-048B","EPOCH":"2026-03-09T14:14:46.220928","MEAN_MOTION":15.19069434,"ECCENTRICITY":0.0110458,"INCLINATION":64.6579,"RA_OF_ASC_NODE":143.2061,"ARG_OF_PERICENTER":207.1808,"MEAN_ANOMALY":152.3511,"EPHEMERIS_TYPE":0,"CLASSIFICATION_TYPE":"U","NORAD_CAT_ID":38759,"ELEMENT_SET_NO":999,"REV_AT_EPOCH":10101,"BSTAR":0.00057078,"MEAN_MOTION_DOT":0.00013943,"MEAN_MOTION_DDOT":0},{"OBJECT_NAME":"STARLINK-2356","OBJECT_ID":"2021-021AN","EPOCH":"2026-03-09T20:36:38.859840","MEAN_MOTION":15.30186543,"ECCENTRICITY":0.00011076,"INCLINATION":53.159,"RA_OF_ASC_NODE":280.2025,"ARG_OF_PERICENTER":103.5872,"MEAN_ANOMALY":256.5252,"EPHEMERIS_TYPE":0,"CLASSIFICATION_TYPE":"U","NORAD_CAT_ID":47896,"ELEMENT_SET_NO":999,"REV_AT_EPOCH":27604,"BSTAR":0.0001012518,"MEAN_MOTION_DOT":2.64e-5,"MEAN_MOTION_DDOT":0}]
